[{"OBJECT_NAME":"STARLINK-5867","OBJECT_ID":"2023-037E","EPOCH":"2026-03-09T22:47:45.367296","MEAN_MOTION":14.98330529,"ECCENTRICITY":0.00025962,"INCLINATION":69.9997,"RA_OF_ASC_NODE":303.9003,"ARG_OF_PERICENTER":272.6705,"MEAN_ANOMALY":87.4156,"EPHEMERIS_TYPE":0,"CLASSIFICATION_TYPE":"U","NORAD_CAT_ID":55918,"ELEMENT_SET_NO":999,"REV_AT_EPOCH":16352,"BSTAR":-2.9750202e-5,"MEAN_MOTION_DOT":-4.48e-6,"MEAN_MOTION_DDOT":0},{"OBJECT_NAME":"PSLV DEB","OBJECT_ID":"2001-049NQ","EPOCH":"2026-03-09T02:43:10.058304","MEAN_MOTION":14.89489046,"ECCENTRICITY":0.00529867,"INCLINATION":98.0964,"RA_OF_ASC_NODE":127.0334,"ARG_OF_PERICENTER":97.8554,"MEAN_ANOMALY":262.8682,"EPHEMERIS_TYPE":0,"CLASSIFICATION_TYPE":"U","NORAD_CAT_ID":27653,"ELEMENT_SET_NO":999,"REV_AT_EPOCH":27440,"BSTAR":0.00043563035,"MEAN_MOTION_DOT":4.198e-5,"MEAN_MOTION_DDOT":0}]
